#aV2008 10 26  0  0   .00000000      96 DD+AD WGS84 FIT  NGA
## 1503       .00000000   900.00000000 54765  .0000000000000
+   31     2  3  4  5  6  7  8  9 10 11 12 13 14 15 16 17 18
+         19 20 21 22 23 24 25 26 27 28 29 30 31 32  0  0  0
+          0  0  0  0  0  0  0  0  0  0  0  0  0  0  0  0  0
+          0  0  0  0  0  0  0  0  0  0  0  0  0  0  0  0  0
+          0  0  0  0  0  0  0  0  0  0  0  0  0  0  0  0  0
++         0  0  0  0  0  0  0  0  0  0  0  0  0  0  0  0  0
++         0  0  0  0  0  0  0  0  0  0  0  0  0  0  0  0  0
++         0  0  0  0  0  0  0  0  0  0  0  0  0  0  0  0  0
++         0  0  0  0  0  0  0  0  0  0  0  0  0  0  0  0  0
++         0  0  0  0  0  0  0  0  0  0  0  0  0  0  0  0  0
%c cc cc ccc ccc cccc cccc cccc cccc ccccc ccccc ccccc ccccc
%c cc cc ccc ccc cccc cccc cccc cccc ccccc ccccc ccccc ccccc
%f  0.0000000  0.000000000  0.00000000000  0.000000000000000
%f  0.0000000  0.000000000  0.00000000000  0.000000000000000
%i    0    0    0    0      0      0      0      0         0
%i    0    0    0    0      0      0      0      0         0
/*      NGA, ST. LOUIS,MO.                                  
/*   EPHEMERIS COMPUTED FROM  3 DAYS OF DATA                
/* CCCCCCCCCCCCCCCCCCCCCCCCCCCCCCCCCCCCCCCCCCCCCCCCCCCCCCCCC
/* CCCCCCCCCCCCCCCCCCCCCCCCCCCCCCCCCCCCCCCCCCCCCCCCCCCCCCCCC
*  2008 10 26  8  0   .00000000                                                 
P  2  14211.766430  20481.767422  -9823.138051    177.540002                    
V  2   1237.948919  12423.555693  27707.702709      -.026163                    
P  3 -21307.682169 -11280.879413 -11819.161055    302.200046                    
V  3  14752.041680  -1317.129888 -25617.238656       .053492                    
P  4   5367.334431  25582.708267   3270.724778   -212.218735                    
V  4  -4815.405774  -3067.360803  31207.488933      -.117369                    
P  5  20081.967306 -12372.245986  11789.692608   -331.893036                    
V  5  -6982.876371  14167.261662  26234.402610      -.473939                    
P  6 -17470.926939 -13826.007190 -14278.996783    153.844748                    
V  6  18718.443365    495.392486 -23074.566254      -.053358                    
P  7  -9771.629118  14709.743533 -19831.394605     22.586009                    
V  7  -8688.221981 -23628.587571 -13363.241760       .005788                    
P  8  -1786.051677  23671.474420 -11447.460921   -175.554763                    
V  8  -5611.263926 -13604.301602 -27907.646952      -.014838                    
P  9  15832.462147   2915.601661  20511.473852     21.709127                    
V  9   8433.615042  26145.122176  -9808.213060       .019376                    
P 10  11927.162411   9611.756837 -21847.636395     -6.480764                    
V 10 -19016.155600  19722.289056  -1389.655409      -.004144                    
P 11 -17779.605241    636.469331  19618.704187     17.018416                    
V 11 -11181.489063 -23000.447624  -8952.949920      -.007913                    
P 12  20564.949128  -6399.803072  15553.347771   -344.387095                    
V 12 -11895.413300  15757.341449  22407.048549       .021024                    
P 13 -18381.029615   7000.720272 -17960.104243    275.176021                    
V 13 -21424.447254  -6947.146082  19344.635058       .010380                    
P 14  -2319.775111 -15329.066344  21699.582522   -202.649409                    
V 14  26413.870512   6412.148267   7280.990727       .048543                    
P 15  25689.920261   6578.242461  -1688.478621   -200.328735                    
V 15  -2728.096681   2397.210642 -31565.279965      -.063311                    
P 16  -6395.861779 -14523.905193 -21206.354047     99.226400                    
V 16  19206.829094 -19108.044983   7480.404053      -.022670                    
P 17    619.127063  15638.647782  21519.673800     39.819477                    
V 17 -26559.581286  -5915.603264   4899.831388       .003841                    
P 18  17042.131453 -19977.867013   2507.232096   -119.546617                    
V 18   4652.680594    392.053968 -31428.501130       .039407                    
P 19 -25585.967942  -7559.577968     73.094636     35.665134                    
V 19    771.763469  -2630.171746 -31540.735318      -.000488                    
P 20 -21001.985367   9999.485827  12673.037689    100.851225                    
V 20   8721.164390 -14069.752971  25364.713434      -.010466                    
P 21   7259.262157 -18916.069386 -16633.695561     45.177709                    
V 21   8675.607581  20232.932274 -19591.913272      -.015474                    
P 22   7613.918354 -21620.116516  13530.212259    210.032257                    
V 22  13827.834357 -10199.032223 -24433.327837      -.001765                    
P 23 -24730.077467   1406.327616 -10001.493798    377.988110                    
V 23 -11770.904849  -4717.217877  28324.896255       .012427                    
P 24  14488.818196  -5122.417721 -21518.438869    136.126282                    
V 24   7011.592474  26805.838949  -1376.161960       .029473                    
P 25 -12708.859925   8069.878005 -21537.419144    -29.591235                    
V 25 -11152.687579 -25865.852785  -2889.158269       .329537                    
P 26  23428.347896  11272.797500  -7162.414871      7.492013                    
V 26  -8286.244336  -1059.173483 -30433.109989       .048151                    
P 27  -6325.648395  17786.579405 -17958.484850    227.951409                    
V 27 -10158.666398 -22042.127241 -17704.634092       .028723                    
P 28  -8799.323565  21675.388156  12644.918882    -23.303920                    
V 28 -12508.612025   9532.615355 -26186.302265      -.002539                    
P 29  20605.692011  -6104.349482 -15480.757101    -32.895149                    
V 29  18800.594304   6728.367281  22255.915944       .015902                    
P 30  18771.249351 -18308.950651   3561.041814    104.194927                    
V 30   -728.500241   5900.521828  31126.983279       .021611                    
P 31  -7515.156496 -25404.861283    818.145993    -34.717028                    
V 31   2729.455614    -39.723616  32011.150004      -.022886                    
P 32 -19782.950184   1323.879737  18003.953571    315.656206                    
V 32  15206.684757 -16066.295576  18529.378428      -.007773                    
EOF
